{
    "links": {
        "self": "http://www.neowsapp.com/rest/v1/neo/3842662?api_key=iIulBulltgU6a56xZRHN4H3l9WmuAYTsLGpBGhQ2"
    },
    "id": "3842662",
    "neo_reference_id": "3842662",
    "name": "(2019 LC)",
    "designation": "2019 LC",
    "nasa_jpl_url": "http://ssd.jpl.nasa.gov/sbdb.cgi?sstr=3842662",
    "absolute_magnitude_h": 25.8,
    "estimated_diameter": {
        "kilometers": {
            "estimated_diameter_min": 0.0183888672,
            "estimated_diameter_max": 0.0411187571
        },
        "meters": {
            "estimated_diameter_min": 18.388867207,
            "estimated_diameter_max": 41.1187571041
        },
        "miles": {
            "estimated_diameter_min": 0.0114263088,
            "estimated_diameter_max": 0.0255500032
        },
        "feet": {
            "estimated_diameter_min": 60.3309310875,
            "estimated_diameter_max": 134.9040630575
        }
    },
    "is_potentially_hazardous_asteroid": false,
    "close_approach_data": [
        {
            "close_approach_date": "2019-06-02",
            "close_approach_date_full": "2019-Jun-02 09:59",
            "epoch_date_close_approach": 1559469540000,
            "relative_velocity": {
                "kilometers_per_second": "6.8854474939",
                "kilometers_per_hour": "24787.6109782115",
                "miles_per_hour": "15402.0574992115"
            },
            "miss_distance": {
                "astronomical": "0.0490038995",
                "lunar": "19.0625169055",
                "kilometers": "7330878.986894065",
                "miles": "4555196.975165497"
            },
            "orbiting_body": "Earth"
        }
    ],
    "orbital_data": {
        "orbit_id": "3",
        "orbit_determination_date": "2019-06-10 12:25:55",
        "first_observation_date": "2019-05-30",
        "last_observation_date": "2019-06-07",
        "data_arc_in_days": 8,
        "observations_used": 24,
        "orbit_uncertainty": "8",
        "minimum_orbit_intersection": ".0481567",
        "jupiter_tisserand_invariant": "4.278",
        "epoch_osculation": "2458635.5",
        "eccentricity": ".3366663323611646",
        "semi_major_axis": "1.601054099235931",
        "inclination": "10.21833338117431",
        "ascending_node_longitude": "249.1813043883781",
        "orbital_period": "739.9586258050359",
        "perihelion_distance": "1.062033087734362",
        "perihelion_argument": "1.604724552464763",
        "aphelion_distance": "2.1400751107375",
        "perihelion_time": "2458636.841709037296",
        "mean_anomaly": "359.3472401880564",
        "mean_motion": ".4865136879894318",
        "equinox": "J2000",
        "orbit_class": {
            "orbit_class_type": "AMO",
            "orbit_class_description": "Near-Earth asteroid orbits similar to that of 1221 Amor",
            "orbit_class_range": "1.017 AU < q (perihelion) < 1.3 AU"
        }
    },
    "is_sentry_object": false
}